KUIPER-00268            
1 67790U 26030AC  26062.11981654  .00037974  00000+0  10830-2 0  9994
2 67790  51.8839 250.7925 0002523  30.8271 329.2863 15.35688201  4082
KUIPER-00270            
1 67791U 26030AD  26062.13672559  .00034744  00000+0  10343-2 0  9999
2 67791  51.8798 250.8926 0010045  37.7212 322.4476 15.34340110  4086
KUIPER-00274            
1 67792U 26030AE  26062.15848488  .00035842  00000+0  11571-2 0  9992
2 67792  51.8817 251.0383 0018339  48.7251 311.5309 15.31631085  4083
KUIPER-00275            
1 67793U 26030AF  26062.13421976  .00032667  00000+0  97146-3 0  9995
2 67793  51.8831 250.8846 0008774  35.4031 324.7535 15.34413947  4087
KUIPER-00276            
1 67794U 26030AG  26062.16231859  .00002602  00000+0  96025-4 0  9990
2 67794  51.8814 251.0593 0018313  47.6892 312.5640 15.31493795  4089
KUIPER-00279            
1 67795U 26030AH  26062.12844110  .00033518  00000+0  97658-3 0  9999
2 67795  51.8793 250.8378 0006269  30.2831 329.8516 15.35063500  4086
